start=new Date('2022-08-10T00:00:00.000Z').valueOf();
sats=[{"TLE_LINE1":"1 47804U 21018T   22221.81709977 -.00000282  00000-0 -64161-7 0  9991","NORAD_CAT_ID":"47804","EPOCH":"2022-08-09T19:36:37.420128","ELEMENT_SET_NO":"999","LAUNCH_DATE":"2021-03-11","TLE_LINE2":"2 47804  53.0558 342.8977 0001119  79.8678 280.2438 15.06399582 79740","SEMIMAJOR_AXIS":"6925.350","OBJECT_NAME":"STARLINK-2385","MEAN_MOTION":"15.06399582","MEAN_ELEMENT_THEORY":"SGP4","ARG_OF_PERICENTER":"79.8678","TIME_SYSTEM":"UTC","MEAN_MOTION_DOT":"-0.00000282","RCS_SIZE":"LARGE","SITE":"AFETR","REV_AT_EPOCH":"7974","INCLINATION":"53.0558","RA_OF_ASC_NODE":"342.8977","CENTER_NAME":"EARTH","ECCENTRICITY":"0.00011190","EPHEMERIS_TYPE":"0","COUNTRY_CODE":"US","OBJECT_ID":"2021-018T","GP_ID":"209928032","CLASSIFICATION_TYPE":"U","FILE":"3533123","OBJECT_TYPE":"PAYLOAD","DECAY_DATE":null,"PERIOD":"95.592","BSTAR":"-0.00000006416100","MEAN_ANOMALY":"280.2438","MEAN_MOTION_DDOT":"0.0000000000000","APOAPSIS":"547.990","REF_FRAME":"TEME","PERIAPSIS":"546.440"},{"REV_AT_EPOCH":"7973","INCLINATION":"53.0564","SITE":"AFETR","RCS_SIZE":"LARGE","MEAN_MOTION_DOT":"-0.00000584","TIME_SYSTEM":"UTC","ARG_OF_PERICENTER":"107.0639","OBJECT_NAME":"STARLINK-2386","MEAN_ELEMENT_THEORY":"SGP4","MEAN_MOTION":"15.06393598","SEMIMAJOR_AXIS":"6925.368","ELEMENT_SET_NO":"999","LAUNCH_DATE":"2021-03-11","TLE_LINE2":"2 47805  53.0564 343.5856 0001307 107.0639 253.0493 15.06393598 79731","TLE_LINE1":"1 47805U 21018U   22221.71762084 -.00000584  00000-0 -20304-4 0  9992","NORAD_CAT_ID":"47805","EPOCH":"2022-08-09T17:13:22.440576","PERIAPSIS":"546.328","APOAPSIS":"548.138","REF_FRAME":"TEME","MEAN_MOTION_DDOT":"0.0000000000000","BSTAR":"-0.00002030400000","MEAN_ANOMALY":"253.0493","PERIOD":"95.593","DECAY_DATE":null,"OBJECT_TYPE":"PAYLOAD","FILE":"3533123","CLASSIFICATION_TYPE":"U","GP_ID":"209928784","COUNTRY_CODE":"US","EPHEMERIS_TYPE":"0","OBJECT_ID":"2021-018U","CENTER_NAME":"EARTH","ECCENTRICITY":"0.00013070","RA_OF_ASC_NODE":"343.5856"},{"MEAN_MOTION_DOT":"-0.00000424","TIME_SYSTEM":"UTC","INCLINATION":"53.0551","REV_AT_EPOCH":"7956","SITE":"AFETR","RCS_SIZE":"LARGE","LAUNCH_DATE":"2021-03-11","ELEMENT_SET_NO":"999","TLE_LINE2":"2 47806  53.0551 358.9230 0001320  82.8746 277.2393 15.06406421 79566","TLE_LINE1":"1 47806U 21018V   22221.58903088 -.00000424  00000-0 -95807-5 0  9993","NORAD_CAT_ID":"47806","EPOCH":"2022-08-09T14:08:12.268032","ARG_OF_PERICENTER":"82.8746","OBJECT_NAME":"STARLINK-2387","MEAN_MOTION":"15.06406421","MEAN_ELEMENT_THEORY":"SGP4","SEMIMAJOR_AXIS":"6925.329","PERIOD":"95.592","DECAY_DATE":null,"OBJECT_TYPE":"PAYLOAD","PERIAPSIS":"546.280","APOAPSIS":"548.108","REF_FRAME":"TEME","MEAN_MOTION_DDOT":"0.0000000000000","BSTAR":"-0.00000958070000","MEAN_ANOMALY":"277.2393","CENTER_NAME":"EARTH","ECCENTRICITY":"0.00013200","RA_OF_ASC_NODE":"358.9230","FILE":"3533123","CLASSIFICATION_TYPE":"U","GP_ID":"209929029","EPHEMERIS_TYPE":"0","COUNTRY_CODE":"US","OBJECT_ID":"2021-018V"},{"MEAN_MOTION_DDOT":"0.0000000000000","BSTAR":"0.00010599000000","MEAN_ANOMALY":"277.7966","PERIAPSIS":"545.675","APOAPSIS":"548.647","REF_FRAME":"TEME","DECAY_DATE":null,"OBJECT_TYPE":"PAYLOAD","PERIOD":"95.591","CLASSIFICATION_TYPE":"U","GP_ID":"209898064","COUNTRY_CODE":"US","EPHEMERIS_TYPE":"0","OBJECT_ID":"2021-018W","FILE":"3532882","RA_OF_ASC_NODE":"335.1615","CENTER_NAME":"EARTH","ECCENTRICITY":"0.00021460","SITE":"AFETR","RCS_SIZE":"LARGE","INCLINATION":"53.0537","REV_AT_EPOCH":"7980","MEAN_MOTION_DOT":"0.00001298","TIME_SYSTEM":"UTC","SEMIMAJOR_AXIS":"6925.296","ARG_OF_PERICENTER":"82.3267","OBJECT_NAME":"STARLINK-2388","MEAN_ELEMENT_THEORY":"SGP4","MEAN_MOTION":"15.06417093","TLE_LINE1":"1 47807U 21018W   22221.31304585  .00001298  00000-0  10599-3 0  9993","NORAD_CAT_ID":"47807","EPOCH":"2022-08-09T07:30:47.161440","LAUNCH_DATE":"2021-03-11","ELEMENT_SET_NO":"999","TLE_LINE2":"2 47807  53.0537 335.1615 0002146  82.3267 277.7966 15.06417093 79800"},{"OBJECT_NAME":"STARLINK-2389","MEAN_MOTION":"15.06393708","MEAN_ELEMENT_THEORY":"SGP4","ARG_OF_PERICENTER":"92.5557","SEMIMAJOR_AXIS":"6925.368","LAUNCH_DATE":"2021-03-11","ELEMENT_SET_NO":"999","TLE_LINE2":"2 47808  53.0550 359.4313 0001487  92.5557 267.5602 15.06393708 79149","TLE_LINE1":"1 47808U 21018X   22221.47477806 -.00001577  00000-0 -86978-4 0  9995","NORAD_CAT_ID":"47808","EPOCH":"2022-08-09T11:23:40.824384","INCLINATION":"53.0550","REV_AT_EPOCH":"7914","RCS_SIZE":"LARGE","SITE":"AFETR","TIME_SYSTEM":"UTC","MEAN_MOTION_DOT":"-0.00001577","FILE":"3532692","COUNTRY_CODE":"US","EPHEMERIS_TYPE":"0","OBJECT_ID":"2021-018X","GP_ID":"209873199","CLASSIFICATION_TYPE":"U","CENTER_NAME":"EARTH","ECCENTRICITY":"0.00014870","RA_OF_ASC_NODE":"359.4313","APOAPSIS":"548.263","REF_FRAME":"TEME","PERIAPSIS":"546.203","BSTAR":"-0.00008697800000","MEAN_ANOMALY":"267.5602","MEAN_MOTION_DDOT":"0.0000000000000","PERIOD":"95.593","OBJECT_TYPE":"PAYLOAD","DECAY_DATE":null},{"FILE":"3532882","COUNTRY_CODE":"US","EPHEMERIS_TYPE":"0","OBJECT_ID":"2021-018Y","GP_ID":"209899065","CLASSIFICATION_TYPE":"U","ECCENTRICITY":"0.00014550","CENTER_NAME":"EARTH","RA_OF_ASC_NODE":"4.4048","REF_FRAME":"TEME","APOAPSIS":"548.184","PERIAPSIS":"546.169","MEAN_ANOMALY":"282.4792","BSTAR":"0.00014845000000","MEAN_MOTION_DDOT":"0.0000000000000","PERIOD":"95.591","OBJECT_TYPE":"PAYLOAD","DECAY_DATE":null,"MEAN_ELEMENT_THEORY":"SGP4","MEAN_MOTION":"15.06411995","OBJECT_NAME":"STARLINK-2390","ARG_OF_PERICENTER":"77.6359","SEMIMAJOR_AXIS":"6925.312","TLE_LINE2":"2 47809  53.0563   4.4048 0001455  77.6359 282.4792 15.06411995 79476","ELEMENT_SET_NO":"999","LAUNCH_DATE":"2021-03-11","EPOCH":"2022-08-09T11:29:36.056256","TLE_LINE1":"1 47809U 21018Y   22221.47888954  .00001931  00000-0  14845-3 0  9991","NORAD_CAT_ID":"47809","INCLINATION":"53.0563","REV_AT_EPOCH":"7947","RCS_SIZE":"LARGE","SITE":"AFETR","TIME_SYSTEM":"UTC","MEAN_MOTION_DOT":"0.00001931"},{"REF_FRAME":"TEME","APOAPSIS":"548.109","PERIAPSIS":"546.243","MEAN_ANOMALY":"261.7876","BSTAR":"0.00032967000000","MEAN_MOTION_DDOT":"0.0000000000000","PERIOD":"95.591","OBJECT_TYPE":"PAYLOAD","DECAY_DATE":null,"FILE":"3532882","COUNTRY_CODE":"US","OBJECT_ID":"2021-018Z","EPHEMERIS_TYPE":"0","GP_ID":"209898802","CLASSIFICATION_TYPE":"U","ECCENTRICITY":"0.00013470","CENTER_NAME":"EARTH","RA_OF_ASC_NODE":"14.2953","REV_AT_EPOCH":"7933","INCLINATION":"53.0538","RCS_SIZE":"LARGE","SITE":"AFETR","TIME_SYSTEM":"UTC","MEAN_MOTION_DOT":"0.00004634","MEAN_MOTION":"15.06412357","MEAN_ELEMENT_THEORY":"SGP4","OBJECT_NAME":"STARLINK-2391","ARG_OF_PERICENTER":"98.3266","SEMIMAJOR_AXIS":"6925.311","TLE_LINE2":"2 47810  53.0538  14.2953 0001347  98.3266 261.7876 15.06412357 79332","ELEMENT_SET_NO":"999","LAUNCH_DATE":"2021-03-11","EPOCH":"2022-08-09T12:06:47.619648","TLE_LINE1":"1 47810U 21018Z   22221.50471782  .00004634  00000-0  32967-3 0  9992","NORAD_CAT_ID":"47810"},{"TIME_SYSTEM":"UTC","MEAN_MOTION_DOT":"0.00003046","INCLINATION":"53.0564","REV_AT_EPOCH":"7978","RCS_SIZE":"LARGE","SITE":"AFETR","ELEMENT_SET_NO":"999","LAUNCH_DATE":"2021-03-11","TLE_LINE2":"2 47811  53.0564 343.5198 0001338 122.1686 237.9433 15.06406030 79787","TLE_LINE1":"1 47811U 21018AA  22221.67704037  .00003046  00000-0  22323-3 0  9994","NORAD_CAT_ID":"47811","EPOCH":"2022-08-09T16:14:56.287968","OBJECT_NAME":"STARLINK-2392","MEAN_MOTION":"15.06406030","MEAN_ELEMENT_THEORY":"SGP4","ARG_OF_PERICENTER":"122.1686","SEMIMAJOR_AXIS":"6925.330","PERIOD":"95.592","OBJECT_TYPE":"PAYLOAD","DECAY_DATE":null,"APOAPSIS":"548.122","REF_FRAME":"TEME","PERIAPSIS":"546.268","BSTAR":"0.00022323000000","MEAN_ANOMALY":"237.9433","MEAN_MOTION_DDOT":"0.0000000000000","CENTER_NAME":"EARTH","ECCENTRICITY":"0.00013380","RA_OF_ASC_NODE":"343.5198","FILE":"3533123","COUNTRY_CODE":"US","OBJECT_ID":"2021-018AA","EPHEMERIS_TYPE":"0","CLASSIFICATION_TYPE":"U","GP_ID":"209927783"},{"PERIOD":"95.591","OBJECT_TYPE":"PAYLOAD","DECAY_DATE":null,"APOAPSIS":"547.906","REF_FRAME":"TEME","PERIAPSIS":"546.400","BSTAR":"0.00052803000000","MEAN_ANOMALY":"293.3232","MEAN_MOTION_DDOT":"0.0000000000000","CENTER_NAME":"EARTH","ECCENTRICITY":"0.00010870","RA_OF_ASC_NODE":"13.0520","FILE":"3533123","EPHEMERIS_TYPE":"0","COUNTRY_CODE":"US","OBJECT_ID":"2021-018AB","GP_ID":"209928033","CLASSIFICATION_TYPE":"U","TIME_SYSTEM":"UTC","MEAN_MOTION_DOT":"0.00007596","INCLINATION":"53.0542","REV_AT_EPOCH":"7931","RCS_SIZE":"LARGE","SITE":"AFETR","LAUNCH_DATE":"2021-03-11","ELEMENT_SET_NO":"999","TLE_LINE2":"2 47812  53.0542  13.0520 0001087  66.7872 293.3232 15.06419792 79314","NORAD_CAT_ID":"47812","TLE_LINE1":"1 47812U 21018AB  22221.78116390  .00007596  00000-0  52803-3 0  9996","EPOCH":"2022-08-09T18:44:52.560960","OBJECT_NAME":"STARLINK-2393","MEAN_MOTION":"15.06419792","MEAN_ELEMENT_THEORY":"SGP4","ARG_OF_PERICENTER":"66.7872","SEMIMAJOR_AXIS":"6925.288"},{"PERIOD":"95.595","OBJECT_TYPE":"PAYLOAD","DECAY_DATE":null,"APOAPSIS":"548.642","REF_FRAME":"TEME","PERIAPSIS":"546.071","BSTAR":"-0.00184500000000","MEAN_ANOMALY":"276.3610","MEAN_MOTION_DDOT":"0.0000000000000","CENTER_NAME":"EARTH","ECCENTRICITY":"0.00018560","RA_OF_ASC_NODE":"342.8324","FILE":"3533123","COUNTRY_CODE":"US","EPHEMERIS_TYPE":"0","OBJECT_ID":"2021-018AC","GP_ID":"209928785","CLASSIFICATION_TYPE":"U","TIME_SYSTEM":"UTC","MEAN_MOTION_DOT":"-0.00027623","INCLINATION":"53.0567","REV_AT_EPOCH":"7980","RCS_SIZE":"LARGE","SITE":"AFETR","ELEMENT_SET_NO":"999","LAUNCH_DATE":"2021-03-11","TLE_LINE2":"2 47813  53.0567 342.8324 0001856  83.7591 276.3610 15.06353242 79800","NORAD_CAT_ID":"47813","TLE_LINE1":"1 47813U 21018AC  22221.83185544 -.00027623  00000-0 -18450-2 0  9994","EPOCH":"2022-08-09T19:57:52.310016","OBJECT_NAME":"STARLINK-2394","MEAN_ELEMENT_THEORY":"SGP4","MEAN_MOTION":"15.06353242","ARG_OF_PERICENTER":"83.7591","SEMIMAJOR_AXIS":"6925.492"}];
